start=new Date('2021-12-30T00:00:00.000Z').valueOf();
sats=[{"APOAPSIS":"548.084","CLASSIFICATION_TYPE":"U","SEMIMAJOR_AXIS":"6925.325","INCLINATION":"53.0546","BSTAR":"0.00031951000000","CENTER_NAME":"EARTH","OBJECT_ID":"2021-005BD","TLE_LINE1":"1 47400U 21005BD  21363.62609196  .00004482  00000-0  31951-3 0  9997","MEAN_ELEMENT_THEORY":"SGP4","REV_AT_EPOCH":"5283","PERIOD":"95.592","RA_OF_ASC_NODE":"54.8194","LAUNCH_DATE":"2021-01-20","SITE":"AFETR","TLE_LINE2":"2 47400  53.0546  54.8194 0001292  79.7109 280.4026 15.06407835 52837","FILE":"3255236","OBJECT_TYPE":"PAYLOAD","REF_FRAME":"TEME","ECCENTRICITY":"0.00012920","GP_ID":"192745024","EPOCH":"2021-12-29T15:01:34.345344","PERIAPSIS":"546.295","MEAN_ANOMALY":"280.4026","DECAY_DATE":null,"ARG_OF_PERICENTER":"79.7109","OBJECT_NAME":"STARLINK-2122","COUNTRY_CODE":"US","ELEMENT_SET_NO":"999","MEAN_MOTION_DDOT":"0.0000000000000","NORAD_CAT_ID":"47400","RCS_SIZE":"LARGE","TIME_SYSTEM":"UTC","MEAN_MOTION_DOT":"0.00004482","MEAN_MOTION":"15.06407835","EPHEMERIS_TYPE":"0"},{"INCLINATION":"53.0549","SEMIMAJOR_AXIS":"6925.335","APOAPSIS":"548.357","CLASSIFICATION_TYPE":"U","TLE_LINE1":"1 47401U 21005BE  21363.64454658  .00002816  00000-0  20782-3 0  9990","OBJECT_ID":"2021-005BE","REV_AT_EPOCH":"5270","PERIOD":"95.592","MEAN_ELEMENT_THEORY":"SGP4","BSTAR":"0.00020782000000","CENTER_NAME":"EARTH","SITE":"AFETR","LAUNCH_DATE":"2021-01-20","RA_OF_ASC_NODE":"64.7550","OBJECT_TYPE":"PAYLOAD","REF_FRAME":"TEME","TLE_LINE2":"2 47401  53.0549  64.7550 0001670  71.5114 288.6057 15.06404279 52702","FILE":"3255236","PERIAPSIS":"546.044","ECCENTRICITY":"0.00016700","EPOCH":"2021-12-29T15:28:08.824512","GP_ID":"192745276","OBJECT_NAME":"STARLINK-2123","MEAN_ANOMALY":"288.6057","ARG_OF_PERICENTER":"71.5114","DECAY_DATE":null,"NORAD_CAT_ID":"47401","RCS_SIZE":"LARGE","MEAN_MOTION":"15.06404279","EPHEMERIS_TYPE":"0","TIME_SYSTEM":"UTC","MEAN_MOTION_DOT":"0.00002816","COUNTRY_CODE":"US","ELEMENT_SET_NO":"999","MEAN_MOTION_DDOT":"0.0000000000000"},{"PERIAPSIS":"546.450","ECCENTRICITY":"0.00010880","GP_ID":"192744024","EPOCH":"2021-12-29T15:54:41.001984","OBJECT_TYPE":"PAYLOAD","REF_FRAME":"TEME","TLE_LINE2":"2 47402  53.0541  64.6663 0001088  80.9154 279.1958 15.06403344 52707","FILE":"3255236","NORAD_CAT_ID":"47402","RCS_SIZE":"LARGE","MEAN_MOTION":"15.06403344","EPHEMERIS_TYPE":"0","TIME_SYSTEM":"UTC","MEAN_MOTION_DOT":"0.00001788","ELEMENT_SET_NO":"999","COUNTRY_CODE":"US","MEAN_MOTION_DDOT":"0.0000000000000","OBJECT_NAME":"STARLINK-2124","MEAN_ANOMALY":"279.1958","ARG_OF_PERICENTER":"80.9154","DECAY_DATE":null,"INCLINATION":"53.0541","SEMIMAJOR_AXIS":"6925.338","APOAPSIS":"547.957","CLASSIFICATION_TYPE":"U","LAUNCH_DATE":"2021-01-20","SITE":"AFETR","RA_OF_ASC_NODE":"64.6663","TLE_LINE1":"1 47402U 21005BF  21363.66297456  .00001788  00000-0  13887-3 0  9999","OBJECT_ID":"2021-005BF","REV_AT_EPOCH":"5270","PERIOD":"95.592","MEAN_ELEMENT_THEORY":"SGP4","CENTER_NAME":"EARTH","BSTAR":"0.00013887000000"},{"FILE":"3255236","TLE_LINE2":"2 47403  53.0544  64.9426 0001256  81.9188 278.1943 15.06407780 52695","OBJECT_TYPE":"PAYLOAD","REF_FRAME":"TEME","ECCENTRICITY":"0.00012560","EPOCH":"2021-12-29T14:29:45.824640","GP_ID":"192743775","PERIAPSIS":"546.320","MEAN_ANOMALY":"278.1943","ARG_OF_PERICENTER":"81.9188","DECAY_DATE":null,"OBJECT_NAME":"STARLINK-2127","ELEMENT_SET_NO":"999","COUNTRY_CODE":"US","MEAN_MOTION_DDOT":"0.0000000000000","NORAD_CAT_ID":"47403","RCS_SIZE":"LARGE","MEAN_MOTION":"15.06407780","EPHEMERIS_TYPE":"0","MEAN_MOTION_DOT":"0.00005398","TIME_SYSTEM":"UTC","APOAPSIS":"548.060","CLASSIFICATION_TYPE":"U","INCLINATION":"53.0544","SEMIMAJOR_AXIS":"6925.325","BSTAR":"0.00038092000000","CENTER_NAME":"EARTH","TLE_LINE1":"1 47403U 21005BG  21363.60400260  .00005398  00000-0  38092-3 0  9999","OBJECT_ID":"2021-005BG","PERIOD":"95.592","REV_AT_EPOCH":"5269","MEAN_ELEMENT_THEORY":"SGP4","RA_OF_ASC_NODE":"64.9426","SITE":"AFETR","LAUNCH_DATE":"2021-01-20"},{"COUNTRY_CODE":"US","ELEMENT_SET_NO":"999","MEAN_MOTION_DDOT":"0.0000000000000","RCS_SIZE":"LARGE","NORAD_CAT_ID":"47404","EPHEMERIS_TYPE":"0","MEAN_MOTION":"15.06393259","MEAN_MOTION_DOT":"0.00000541","TIME_SYSTEM":"UTC","MEAN_ANOMALY":"292.4101","ARG_OF_PERICENTER":"67.7072","DECAY_DATE":null,"OBJECT_NAME":"STARLINK-2128","ECCENTRICITY":"0.00017340","EPOCH":"2021-12-29T16:00:00.497088","GP_ID":"192744524","PERIAPSIS":"546.033","TLE_LINE2":"2 47404  53.0562  64.6591 0001734  67.7072 292.4101 15.06393259 52703","FILE":"3255236","OBJECT_TYPE":"PAYLOAD","REF_FRAME":"TEME","RA_OF_ASC_NODE":"64.6591","SITE":"AFETR","LAUNCH_DATE":"2021-01-20","CENTER_NAME":"EARTH","BSTAR":"0.00005519600000","TLE_LINE1":"1 47404U 21005BH  21363.66667242  .00000541  00000-0  55196-4 0  9991","OBJECT_ID":"2021-005BH","PERIOD":"95.593","REV_AT_EPOCH":"5270","MEAN_ELEMENT_THEORY":"SGP4","APOAPSIS":"548.435","CLASSIFICATION_TYPE":"U","INCLINATION":"53.0562","SEMIMAJOR_AXIS":"6925.369"},{"TLE_LINE2":"2 47405  53.0465  94.4524 0001232  79.8900 280.2228 15.06402734 52287","FILE":"3255236","OBJECT_TYPE":"PAYLOAD","REF_FRAME":"TEME","ECCENTRICITY":"0.00012320","EPOCH":"2021-12-29T17:10:19.200864","GP_ID":"192744776","PERIAPSIS":"546.352","MEAN_ANOMALY":"280.2228","ARG_OF_PERICENTER":"79.8900","DECAY_DATE":null,"OBJECT_NAME":"STARLINK-2130","COUNTRY_CODE":"US","ELEMENT_SET_NO":"999","MEAN_MOTION_DDOT":"0.0000000000000","RCS_SIZE":"LARGE","NORAD_CAT_ID":"47405","MEAN_MOTION":"15.06402734","EPHEMERIS_TYPE":"0","TIME_SYSTEM":"UTC","MEAN_MOTION_DOT":"0.00003725","APOAPSIS":"548.058","CLASSIFICATION_TYPE":"U","INCLINATION":"53.0465","SEMIMAJOR_AXIS":"6925.340","CENTER_NAME":"EARTH","BSTAR":"0.00026883000000","TLE_LINE1":"1 47405U 21005BJ  21363.71550001  .00003725  00000-0  26883-3 0  9999","OBJECT_ID":"2021-005BJ","REV_AT_EPOCH":"5228","PERIOD":"95.592","MEAN_ELEMENT_THEORY":"SGP4","RA_OF_ASC_NODE":"94.4524","LAUNCH_DATE":"2021-01-20","SITE":"AFETR"},{"TLE_LINE2":"2 47406  53.0556  64.8925 0001428  75.5852 284.5295 15.06397698 52699","FILE":"3255236","REF_FRAME":"TEME","OBJECT_TYPE":"PAYLOAD","EPOCH":"2021-12-29T14:40:22.554624","GP_ID":"192743524","ECCENTRICITY":"0.00014280","PERIAPSIS":"546.232","DECAY_DATE":null,"ARG_OF_PERICENTER":"75.5852","MEAN_ANOMALY":"284.5295","OBJECT_NAME":"STARLINK-2133","MEAN_MOTION_DDOT":"0.0000000000000","COUNTRY_CODE":"US","ELEMENT_SET_NO":"999","MEAN_MOTION_DOT":"-0.00002444","TIME_SYSTEM":"UTC","MEAN_MOTION":"15.06397698","EPHEMERIS_TYPE":"0","RCS_SIZE":"LARGE","NORAD_CAT_ID":"47406","CLASSIFICATION_TYPE":"U","APOAPSIS":"548.210","SEMIMAJOR_AXIS":"6925.356","INCLINATION":"53.0556","CENTER_NAME":"EARTH","BSTAR":"-0.00014521000000","MEAN_ELEMENT_THEORY":"SGP4","REV_AT_EPOCH":"5269","PERIOD":"95.592","OBJECT_ID":"2021-005BK","TLE_LINE1":"1 47406U 21005BK  21363.61137216 -.00002444  00000-0 -14521-3 0  9993","RA_OF_ASC_NODE":"64.8925","SITE":"AFETR","LAUNCH_DATE":"2021-01-20"},{"BSTAR":"0.00017945000000","CENTER_NAME":"EARTH","TLE_LINE1":"1 47407U 21005BL  21363.55239721  .00002392  00000-0  17945-3 0  9994","OBJECT_ID":"2021-005BL","REV_AT_EPOCH":"5268","PERIOD":"95.592","MEAN_ELEMENT_THEORY":"SGP4","RA_OF_ASC_NODE":"65.1746","SITE":"AFETR","LAUNCH_DATE":"2021-01-20","APOAPSIS":"548.169","CLASSIFICATION_TYPE":"U","INCLINATION":"53.0549","SEMIMAJOR_AXIS":"6925.354","MEAN_ANOMALY":"270.5297","ARG_OF_PERICENTER":"89.5849","DECAY_DATE":null,"OBJECT_NAME":"STARLINK-2134","ELEMENT_SET_NO":"999","COUNTRY_CODE":"US","MEAN_MOTION_DDOT":"0.0000000000000","NORAD_CAT_ID":"47407","RCS_SIZE":"LARGE","EPHEMERIS_TYPE":"0","MEAN_MOTION":"15.06398154","MEAN_MOTION_DOT":"0.00002392","TIME_SYSTEM":"UTC","FILE":"3254971","TLE_LINE2":"2 47407  53.0549  65.1746 0001372  89.5849 270.5297 15.06398154 52680","OBJECT_TYPE":"PAYLOAD","REF_FRAME":"TEME","ECCENTRICITY":"0.00013720","EPOCH":"2021-12-29T13:15:27.118944","GP_ID":"192713239","PERIAPSIS":"546.269"},{"COUNTRY_CODE":"US","ELEMENT_SET_NO":"999","MEAN_MOTION_DDOT":"0.0000000000000","RCS_SIZE":"LARGE","NORAD_CAT_ID":"47408","MEAN_MOTION":"15.06397551","EPHEMERIS_TYPE":"0","TIME_SYSTEM":"UTC","MEAN_MOTION_DOT":"0.00000152","MEAN_ANOMALY":"273.6642","ARG_OF_PERICENTER":"86.4478","DECAY_DATE":null,"OBJECT_NAME":"STARLINK-2135","ECCENTRICITY":"0.00011470","EPOCH":"2021-12-29T15:44:04.174368","GP_ID":"192745025","PERIAPSIS":"546.427","TLE_LINE2":"2 47408  53.0557  64.6946 0001147  86.4478 273.6642 15.06397551 52701","FILE":"3255236","OBJECT_TYPE":"PAYLOAD","REF_FRAME":"TEME","RA_OF_ASC_NODE":"64.6946","SITE":"AFETR","LAUNCH_DATE":"2021-01-20","BSTAR":"0.00002911700000","CENTER_NAME":"EARTH","TLE_LINE1":"1 47408U 21005BM  21363.65560387  .00000152  00000-0  29117-4 0  9998","OBJECT_ID":"2021-005BM","PERIOD":"95.592","REV_AT_EPOCH":"5270","MEAN_ELEMENT_THEORY":"SGP4","APOAPSIS":"548.015","CLASSIFICATION_TYPE":"U","INCLINATION":"53.0557","SEMIMAJOR_AXIS":"6925.356"},{"RA_OF_ASC_NODE":"67.7429","LAUNCH_DATE":"2021-01-24","SITE":"AFETR","BSTAR":"-0.00049790000000","CENTER_NAME":"EARTH","OBJECT_ID":"2021-006B","TLE_LINE1":"1 47414U 21006B   21363.91667824 -.00146567  93821-5 -49790-3 0  9998","MEAN_ELEMENT_THEORY":"SGP4","PERIOD":"90.584","REV_AT_EPOCH":"5199","APOAPSIS":"306.210","CLASSIFICATION_TYPE":"U","SEMIMAJOR_AXIS":"6681.324","INCLINATION":"97.4744","COUNTRY_CODE":"US","ELEMENT_SET_NO":"999","MEAN_MOTION_DDOT":"0.0000093821000","RCS_SIZE":"LARGE","NORAD_CAT_ID":"47414","MEAN_MOTION_DOT":"-0.00146567","TIME_SYSTEM":"UTC","EPHEMERIS_TYPE":"0","MEAN_MOTION":"15.89677271","MEAN_ANOMALY":"41.8351","DECAY_DATE":null,"ARG_OF_PERICENTER":"208.9108","OBJECT_NAME":"STARLINK-2200","ECCENTRICITY":"0.00045220","GP_ID":"192717167","EPOCH":"2021-12-29T22:00:00.999936","PERIAPSIS":"300.168","TLE_LINE2":"2 47414  97.4744  67.7429 0004522 208.9108  41.8351 15.89677271 51992","FILE":"3255012","OBJECT_TYPE":"PAYLOAD","REF_FRAME":"TEME"}];
